[{"OBJECT_NAME":"STARLINK-35655","OBJECT_ID":"2025-262Q","EPOCH":"2026-03-09T00:36:20.190816","MEAN_MOTION":15.27596437,"ECCENTRICITY":0.0002052,"INCLINATION":43.003,"RA_OF_ASC_NODE":300.0192,"ARG_OF_PERICENTER":253.1444,"MEAN_ANOMALY":106.9183,"EPHEMERIS_TYPE":0,"CLASSIFICATION_TYPE":"U","NORAD_CAT_ID":66470,"ELEMENT_SET_NO":999,"REV_AT_EPOCH":1880,"BSTAR":0.0012163908,"MEAN_MOTION_DOT":0.00033379,"MEAN_MOTION_DDOT":0},{"OBJECT_NAME":"ELECTRON KICK STAGE R\/B","OBJECT_ID":"2024-047B","EPOCH":"2026-03-09T21:11:54.433824","MEAN_MOTION":15.27307897,"ECCENTRICITY":0.00092426,"INCLINATION":97.6338,"RA_OF_ASC_NODE":46.9382,"ARG_OF_PERICENTER":20.6031,"MEAN_ANOMALY":339.5579,"EPHEMERIS_TYPE":0,"CLASSIFICATION_TYPE":"U","NORAD_CAT_ID":59225,"ELEMENT_SET_NO":999,"REV_AT_EPOCH":10999,"BSTAR":0.00091229405,"MEAN_MOTION_DOT":0.00024409,"MEAN_MOTION_DDOT":0}]
